{
  "type": "FeatureCollection",
  "features": [
    {
      "type": "Feature",
      "properties": {
        "norad_id": 66612,
        "name": "STARLINK-36039",
        "group": "last-30-days",
        "lat": -15.759741840817336,
        "lon": 162.76372799805122,
        "alt_km": 445.0136385607675,
        "timestamp": "2025-12-14T20:40:30.515584+00:00",
        "meta_object_name": "STARLINK-36039",
        "meta_object_id": "2025-270AA",
        "meta_epoch": "2025-12-14T06:00:02.999808",
        "meta_mean_motion": 15.40698403,
        "meta_eccentricity": 0.00021215,
        "meta_inclination": 43,
        "meta_ra_of_asc_node": 183.9169,
        "meta_arg_of_pericenter": 266.9332,
        "meta_mean_anomaly": 274.3131,
        "meta_ephemeris_type": 0,
        "meta_classification_type": "U",
        "meta_norad_cat_id": 66612,
        "meta_element_set_no": 999,
        "meta_rev_at_epoch": 464,
        "meta_bstar": 2.4860688e-05,
        "meta_mean_motion_dot": 7.35e-06,
        "meta_mean_motion_ddot": 0,
        "tle_line1": "1 66612U 25270AA  25348.25003472  .00000735  00000+0  24861-4 0  9991",
        "tle_line2": "2 66612  43.0000 183.9169 0002121 266.9332 274.3131 15.40698403  4649"
      },
      "geometry": {
        "type": "Point",
        "coordinates": [
          162.76372799805122,
          -15.759741840817336
        ]
      }
    },
    {
      "type": "Feature",
      "properties": {
        "norad_id": 66613,
        "name": "STARLINK-36037",
        "group": "last-30-days",
        "lat": 0.7341222590541131,
        "lon": -178.87796129196983,
        "alt_km": 445.7951662733867,
        "timestamp": "2025-12-14T20:40:30.515597+00:00",
        "meta_object_name": "STARLINK-36037",
        "meta_object_id": "2025-270AB",
        "meta_epoch": "2025-12-14T06:00:02.999808",
        "meta_mean_motion": 15.41652139,
        "meta_eccentricity": 0.00013676,
        "meta_inclination": 43,
        "meta_ra_of_asc_node": 183.8587,
        "meta_arg_of_pericenter": 278.3113,
        "meta_mean_anomaly": 287.3388,
        "meta_ephemeris_type": 0,
        "meta_classification_type": "U",
        "meta_norad_cat_id": 66613,
        "meta_element_set_no": 999,
        "meta_rev_at_epoch": 464,
        "meta_bstar": -0.034130694,
        "meta_mean_motion_dot": -0.01344158,
        "meta_mean_motion_ddot": 0,
        "tle_line1": "1 66613U 25270AB  25348.25003472 -.01344158  00000+0 -34131-1 0  9993",
        "tle_line2": "2 66613  43.0000 183.8587 0001367 278.3113 287.3388 15.41652139  4643"
      },
      "geometry": {
        "type": "Point",
        "coordinates": [
          -178.87796129196983,
          0.7341222590541131
        ]
      }
    },
    {
      "type": "Feature",
      "properties": {
        "norad_id": 66614,
        "name": "STARLINK-36040",
        "group": "last-30-days",
        "lat": 34.8570400303649,
        "lon": -131.43074200777195,
        "alt_km": 409.96261885718377,
        "timestamp": "2025-12-14T20:40:30.515609+00:00",
        "meta_object_name": "STARLINK-36040",
        "meta_object_id": "2025-270AC",
        "meta_epoch": "2025-12-14T06:31:04.245888",
        "meta_mean_motion": 15.50595656,
        "meta_eccentricity": 0.00017195,
        "meta_inclination": 42.9991,
        "meta_ra_of_asc_node": 183.6503,
        "meta_arg_of_pericenter": 267.9518,
        "meta_mean_anomaly": 92.1145,
        "meta_ephemeris_type": 0,
        "meta_classification_type": "U",
        "meta_norad_cat_id": 66614,
        "meta_element_set_no": 999,
        "meta_rev_at_epoch": 442,
        "meta_bstar": 0.0020383303,
        "meta_mean_motion_dot": 0.00121178,
        "meta_mean_motion_ddot": 0,
        "tle_line1": "1 66614U 25270AC  25348.27157692  .00121178  00000+0  20383-2 0  9997",
        "tle_line2": "2 66614  42.9991 183.6503 0001719 267.9518  92.1145 15.50595656  4420"
      },
      "geometry": {
        "type": "Point",
        "coordinates": [
          -131.43074200777195,
          34.8570400303649
        ]
      }
    },
    {
      "type": "Feature",
      "properties": {
        "norad_id": 66615,
        "name": "STARLINK-35988",
        "group": "last-30-days",
        "lat": 23.28138135622526,
        "lon": -152.24915142068886,
        "alt_km": 432.3178730112404,
        "timestamp": "2025-12-14T20:40:30.515621+00:00",
        "meta_object_name": "STARLINK-35988",
        "meta_object_id": "2025-270AD",
        "meta_epoch": "2025-12-14T06:00:02.999808",
        "meta_mean_motion": 15.46385081,
        "meta_eccentricity": 0.00012744,
        "meta_inclination": 43.0003,
        "meta_ra_of_asc_node": 183.798,
        "meta_arg_of_pericenter": 265.2975,
        "meta_mean_anomaly": 325.3789,
        "meta_ephemeris_type": 0,
        "meta_classification_type": "U",
        "meta_norad_cat_id": 66615,
        "meta_element_set_no": 999,
        "meta_rev_at_epoch": 448,
        "meta_bstar": -0.046573472,
        "meta_mean_motion_dot": -0.02092274,
        "meta_mean_motion_ddot": 0,
        "tle_line1": "1 66615U 25270AD  25348.25003472 -.02092274  00000+0 -46573-1 0  9998",
        "tle_line2": "2 66615  43.0003 183.7980 0001274 265.2975 325.3789 15.46385081  4486"
      },
      "geometry": {
        "type": "Point",
        "coordinates": [
          -152.24915142068886,
          23.28138135622526
        ]
      }
    },
    {
      "type": "Feature",
      "properties": {
        "norad_id": 66616,
        "name": "STARLINK-35391",
        "group": "last-30-days",
        "lat": 35.71204031541165,
        "lon": -129.31743157617103,
        "alt_km": 410.03688587642773,
        "timestamp": "2025-12-14T20:40:30.515637+00:00",
        "meta_object_name": "STARLINK-35391",
        "meta_object_id": "2025-270AE",
        "meta_epoch": "2025-12-14T06:30:34.272864",
        "meta_mean_motion": 15.50604538,
        "meta_eccentricity": 0.00018587,
        "meta_inclination": 42.9987,
        "meta_ra_of_asc_node": 183.6472,
        "meta_arg_of_pericenter": 262.8877,
        "meta_mean_anomaly": 97.1772,
        "meta_ephemeris_type": 0,
        "meta_classification_type": "U",
        "meta_norad_cat_id": 66616,
        "meta_element_set_no": 999,
        "meta_rev_at_epoch": 469,
        "meta_bstar": 0.0016498568,
        "meta_mean_motion_dot": 0.00097755,
        "meta_mean_motion_ddot": 0,
        "tle_line1": "1 66616U 25270AE  25348.27123001  .00097755  00000+0  16499-2 0  9992",
        "tle_line2": "2 66616  42.9987 183.6472 0001858 262.8877  97.1772 15.50604538  4698"
      },
      "geometry": {
        "type": "Point",
        "coordinates": [
          -129.31743157617103,
          35.71204031541165
        ]
      }
    },
    {
      "type": "Feature",
      "properties": {
        "norad_id": 66617,
        "name": "STARLINK-35940",
        "group": "last-30-days",
        "lat": 31.380975368308114,
        "lon": -155.68320458224952,
        "alt_km": 427.72849878642774,
        "timestamp": "2025-12-14T20:40:30.515649+00:00",
        "meta_object_name": "STARLINK-35940",
        "meta_object_id": "2025-271A",
        "meta_epoch": "2025-12-14T06:00:02.999808",
        "meta_mean_motion": 15.47506506,
        "meta_eccentricity": 0.00013049,
        "meta_inclination": 53.16,
        "meta_ra_of_asc_node": 180.0145,
        "meta_arg_of_pericenter": 92.7913,
        "meta_mean_anomaly": 142.783,
        "meta_ephemeris_type": 0,
        "meta_classification_type": "U",
        "meta_norad_cat_id": 66617,
        "meta_element_set_no": 999,
        "meta_rev_at_epoch": 448,
        "meta_bstar": -0.045673925,
        "meta_mean_motion_dot": -0.02114669,
        "meta_mean_motion_ddot": 0,
        "tle_line1": "1 66617U 25271A   25348.25003472 -.02114669  00000+0 -45674-1 0  9995",
        "tle_line2": "2 66617  53.1600 180.0145 0001304  92.7913 142.7830 15.47506506  4481"
      },
      "geometry": {
        "type": "Point",
        "coordinates": [
          -155.68320458224952,
          31.380975368308114
        ]
      }
    },
    {
      "type": "Feature",
      "properties": {
        "norad_id": 66618,
        "name": "STARLINK-35970",
        "group": "last-30-days",
        "lat": 51.38841148070651,
        "lon": -72.87188335919262,
        "alt_km": 411.75235816078566,
        "timestamp": "2025-12-14T20:40:30.515660+00:00",
        "meta_object_name": "STARLINK-35970",
        "meta_object_id": "2025-271B",
        "meta_epoch": "2025-12-14T06:00:02.999808",
        "meta_mean_motion": 15.49409772,
        "meta_eccentricity": 7.175e-05,
        "meta_inclination": 53.1599,
        "meta_ra_of_asc_node": 179.8989,
        "meta_arg_of_pericenter": 69.6392,
        "meta_mean_anomaly": 220.5778,
        "meta_ephemeris_type": 0,
        "meta_classification_type": "U",
        "meta_norad_cat_id": 66618,
        "meta_element_set_no": 999,
        "meta_rev_at_epoch": 448,
        "meta_bstar": -0.0032422425,
        "meta_mean_motion_dot": -0.0017736,
        "meta_mean_motion_ddot": 0,
        "tle_line1": "1 66618U 25271B   25348.25003472 -.00177360  00000+0 -32422-2 0  9999",
        "tle_line2": "2 66618  53.1599 179.8989 0000717  69.6392 220.5778 15.49409772  4487"
      },
      "geometry": {
        "type": "Point",
        "coordinates": [
          -72.87188335919262,
          51.38841148070651
        ]
      }
    }
  ]
}